IRIDIUM 155             
1 43573U 18061E   25326.03812840  .00000098  00000+0  27894-4 0  9992
2 43573  86.3961 143.2854 0001806  92.4189 267.7213 14.34216630383666
IRIDIUM 154             
1 43574U 18061F   25326.01910219  .00000098  00000+0  27839-4 0  9999
2 43574  86.3966 143.4165 0002080  89.7717 270.3717 14.34217963383715
IRIDIUM 163             
1 43575U 18061G   25326.48844948  .00000081  00000+0  21795-4 0  9993
2 43575  86.3962 143.1423 0001984  85.1011 275.0411 14.34215259383758
IRIDIUM 156             
1 43576U 18061H   25325.97470353  .00000042  00000+0  80704-5 0  9995
2 43576  86.3963 143.3641 0001864  95.8494 264.2914 14.34217779383672
IRIDIUM 164             
1 43577U 18061J   25326.02545372  .00000103  00000+0  29872-4 0  9993
2 43577  86.3965 143.3799 0002148  93.7575 266.3866 14.34215943383728
IRIDIUM 159             
1 43578U 18061K   25326.48211200  .00000105  00000+0  30422-4 0  9999
2 43578  86.3963 143.1304 0002177  87.1800 272.9645 14.34218123383751
IRIDIUM 180             
1 43922U 19002A   25326.41184894  .00000368  00000+0  12437-3 0  9995
2 43922  86.3961  80.0388 0002057  90.4192 269.7239 14.34217595359355
IRIDIUM 176             
1 43923U 19002B   25326.40124282  .00001326  00000+0  20633-3 0  9992
2 43923  86.6085  80.0168 0001844  96.5944 263.5483 14.72264730368827
IRIDIUM 168             
1 43924U 19002C   25326.40550418  .00000374  00000+0  12640-3 0  9998
2 43924  86.3964  80.1130 0002022  92.6312 267.5116 14.34218055359336
IRIDIUM 173             
1 43925U 19002D   25326.39282137  .00000377  00000+0  12752-3 0  9994
2 43925  86.3958  80.0155 0001917  93.2061 266.9355 14.34217138359313
IRIDIUM 169             
1 43926U 19002E   25326.46293416  .00000472  00000+0  14769-3 0  9991
2 43926  86.4203 111.6366 0000831  91.1628 268.9665 14.38609433360509
IRIDIUM 172             
1 43927U 19002F   25326.38647853  .00000371  00000+0  12544-3 0  9998
2 43927  86.3958  80.0253 0002107  89.0532 271.0905 14.34217684359327
IRIDIUM 175             
1 43928U 19002G   25326.19257544  .00001116  00000+0  17305-3 0  9990
2 43928  86.1524  23.6701 0002743 109.1159 251.0354 14.72239679368787
IRIDIUM 171             
1 43929U 19002H   25326.36744049  .00000357  00000+0  12049-3 0  9997
2 43929  86.3967  80.3170 0002053 103.4382 256.7042 14.34216089359313
IRIDIUM 170             
1 43930U 19002J   25326.40740722  .00001313  00000+0  20434-3 0  9998
2 43930  86.6083  80.0179 0002256  88.4066 271.7410 14.72255163368830
IRIDIUM 167             
1 43931U 19002K   25326.36110602  .00000372  00000+0  12590-3 0  9990
2 43931  86.3959  80.0567 0001827 108.2892 251.8503 14.34217567359311
IRIDIUM 181             
1 56726U 23068S   25326.43555194  .00000159  00000+0  41291-4 0  9994
2 56726  86.4503 143.2061 0002600  96.2049 263.9448 14.43308613132611
IRIDIUM 177             
1 56727U 23068T   25326.32656990  .00001938  00000+0  25163-3 0  9994
2 56727  86.1972  67.0230 0002394  89.4702 270.6793 14.80214700135761
IRIDIUM 174             
1 56728U 23068U   25326.39505426  .00001381  00000+0  21509-3 0  9991
2 56728  86.6090  80.1498 0002300  88.7043 271.4438 14.72261518135593
IRIDIUM 178             
1 56729U 23068V   25326.38315779  .00001901  00000+0  24640-3 0  9998
2 56729  86.6509 111.8027 0002527 107.2061 252.9437 14.80284524135771
IRIDIUM 179             
1 56730U 23068W   25326.37780670  .00001567  00000+0  20279-3 0  9997
2 56730  86.6764 120.1682 0002332 104.2745 255.8736 14.80234465135779
